ORBCOMM FM33            
1 25983U 99065D   25190.84817557  .00000411  00000+0  17428-3 0  9998
2 25983  45.0279 251.2184 0009337 190.7470 169.3181 14.40033415339402
ORBCOMM FM36            
1 25984U 99065E   25189.73132654  .00000684  00000+0  26994-3 0  9993
2 25984  45.0407 348.7943 0002639  73.4516 286.6623 14.38160859337522
ORBCOMM FM35            
1 25985U 99065F   25189.86551701  .00000532  00000+0  22481-3 0  9995
2 25985  45.0409 353.3639 0004577 149.5738 210.5376 14.37128166337900
ORBCOMM FM34            
1 25986U 99065G   25190.73488636  .00000410  00000+0  18422-3 0  9995
2 25986  45.0407 349.7148 0004212 111.5090 248.6208 14.37149035338184
ORBCOMM FM38            
1 33060U 08031A   25190.74100625  .00000757  00000+0  12316-3 0  9990
2 33060  48.4391 207.7590 0004245 142.0761 218.0454 14.81380780918089
ORBCOMM FM41            
1 33061U 08031B   25189.56093370  .00000805  00000+0  13031-3 0  9996
2 33061  48.4428 221.2360 0003379 119.1669  13.2024 14.80962195917404
ORBCOMM FM29            
1 33062U 08031C   25190.83263312  .00000710  00000+0  11800-3 0  9991
2 33062  48.4381 222.9614 0005050 123.7810  46.4476 14.81068993917896
ORBCOMM FM39            
1 33063U 08031D   25190.85375320  .00000653  00000+0  11434-3 0  9996
2 33063  48.4399 247.3829 0005951  92.2680 267.8916 14.79617409917572
